CTC1_L_00155001-01
1 78987U 23544LH  26070.40833333  .00000000  00000+0  00000-0 0  9998
2 78987  90.0000   0.0000 0000000   0.0000   0.0000 14.06899812    19
CTC1_L_00155001-02
1 78988U 24450WB  26070.40833333  .00000000  00000+0  00000-0 0  9996
2 78988  90.0000   0.0000 0000000   0.0000  90.0000 14.06899812    19
CTC1_L_00155001-03
1 78989U 22823VA  26070.40833333  .00000000  00000+0  00000-0 0  9999
2 78989  90.0000   0.0000 0000000   0.0000 180.0000 14.06899812    10
CTC1_L_00155001-04
1 78990U 25520PZ  26070.40833333  .00000000  00000+0  00000-0 0  9998
2 78990  90.0000   0.0000 0000000   0.0000 270.0000 14.06899812    12
CTC1_L_00155002-01
1 78991U 23557MU  26070.40833333  .00000000  00000+0  00000-0 0  9997
2 78991  90.0000  12.0000 0000000   0.0000  12.0000 14.06899812    10
CTC1_L_00155002-02
1 78992U 22370KP  26070.40833333  .00000000  00000+0  00000-0 0  9990
2 78992  90.0000  12.0000 0000000   0.0000 102.0000 14.06899812    11
CTC1_L_00155002-03
1 78993U 23800QU  26070.40833333  .00000000  00000+0  00000-0 0  9990
2 78993  90.0000  12.0000 0000000   0.0000 192.0000 14.06899812    11
CTC1_L_00155002-04
1 78994U 23846GF  26070.40833333  .00000000  00000+0  00000-0 0  9991
2 78994  90.0000  12.0000 0000000   0.0000 282.0000 14.06899812    12
CTC1_L_00155003-01
1 78995U 26263EA  26070.40833333  .00000000  00000+0  00000-0 0  9998
2 78995  90.0000  24.0000 0000000   0.0000  24.0000 14.06899812    10
CTC1_L_00155003-02
1 78996U 24666WD  26070.40833333  .00000000  00000+0  00000-0 0  9994
2 78996  90.0000  24.0000 0000000   0.0000 114.0000 14.06899812    11
CTC1_L_00155003-03
1 78997U 22499VA  26070.40833333  .00000000  00000+0  00000-0 0  9997
2 78997  90.0000  24.0000 0000000   0.0000 204.0000 14.06899812    12
CTC1_L_00155003-04
1 78998U 25765UI  26070.40833333  .00000000  00000+0  00000-0 0  9997
2 78998  90.0000  24.0000 0000000   0.0000 294.0000 14.06899812    12
CTC1_L_00155004-01
1 78999U 24936OB  26070.40833333  .00000000  00000+0  00000-0 0  9997
2 78999  90.0000  36.0000 0000000   0.0000  36.0000 14.06899812    10
CTC1_L_00155004-02
1 79000U 22938FE  26070.40833333  .00000000  00000+0  00000-0 0  9991
2 79000  90.0000  36.0000 0000000   0.0000 126.0000 14.06899812    14
CTC1_L_00155004-03
1 79001U 25814WU  26070.40833333  .00000000  00000+0  00000-0 0  9998
2 79001  90.0000  36.0000 0000000   0.0000 216.0000 14.06899812    15
CTC1_L_00155004-04
1 79002U 25385HG  26070.40833333  .00000000  00000+0  00000-0 0  9992
2 79002  90.0000  36.0000 0000000   0.0000 306.0000 14.06899812    16
CTC1_L_00155005-01
1 79003U 26069GP  26070.40833333  .00000000  00000+0  00000-0 0  9993
2 79003  90.0000  48.0000 0000000   0.0000  48.0000 14.06899812    13
CTC1_L_00155005-02
1 79004U 22202EG  26070.40833333  .00000000  00000+0  00000-0 0  9999
2 79004  90.0000  48.0000 0000000   0.0000 138.0000 14.06899812    14
CTC1_L_00155005-03
1 79005U 25065TQ  26070.40833333  .00000000  00000+0  00000-0 0  9990
2 79005  90.0000  48.0000 0000000   0.0000 228.0000 14.06899812    15
CTC1_L_00155005-04
1 79006U 22184ZA  26070.40833333  .00000000  00000+0  00000-0 0  9990
2 79006  90.0000  48.0000 0000000   0.0000 318.0000 14.06899812    16
CTC1_L_00155006-01
1 79007U 23350SH  26070.40833333  .00000000  00000+0  00000-0 0  9997
2 79007  90.0000  60.0000 0000000   0.0000  60.0000 14.06899812    15
CTC1_L_00155006-02
1 79008U 24606BX  26070.40833333  .00000000  00000+0  00000-0 0  9993
2 79008  90.0000  60.0000 0000000   0.0000 150.0000 14.06899812    16
CTC1_L_00155006-03
1 79009U 25036HY  26070.40833333  .00000000  00000+0  00000-0 0  9992
2 79009  90.0000  60.0000 0000000   0.0000 240.0000 14.06899812    17
CTC1_L_00155006-04
1 79010U 25532VZ  26070.40833333  .00000000  00000+0  00000-0 0  9995
2 79010  90.0000  60.0000 0000000   0.0000 330.0000 14.06899812    19
CTC1_L_00155007-01
1 79011U 25976BT  26070.40833333  .00000000  00000+0  00000-0 0  9998
2 79011  90.0000  72.0000 0000000   0.0000  72.0000 14.06899812    16
CTC1_L_00155007-02
1 79012U 25331TK  26070.40833333  .00000000  00000+0  00000-0 0  9994
2 79012  90.0000  72.0000 0000000   0.0000 162.0000 14.06899812    17
CTC1_L_00155007-03
1 79013U 22328WJ  26070.40833333  .00000000  00000+0  00000-0 0  9998
2 79013  90.0000  72.0000 0000000   0.0000 252.0000 14.06899812    18
CTC1_L_00155007-04
1 79014U 22066TG  26070.40833333  .00000000  00000+0  00000-0 0  9998
2 79014  90.0000  72.0000 0000000   0.0000 342.0000 14.06899812    19
CTC1_L_00155008-01
1 79015U 25336NN  26070.40833333  .00000000  00000+0  00000-0 0  9992
2 79015  90.0000  84.0000 0000000   0.0000  84.0000 14.06899812    16
CTC1_L_00155008-02
1 79016U 25422YW  26070.40833333  .00000000  00000+0  00000-0 0  9999
2 79016  90.0000  84.0000 0000000   0.0000 174.0000 14.06899812    17
CTC1_L_00155008-03
1 79017U 23868XE  26070.40833333  .00000000  00000+0  00000-0 0  9992
2 79017  90.0000  84.0000 0000000   0.0000 264.0000 14.06899812    18
CTC1_L_00155008-04
1 79018U 23677OG  26070.40833333  .00000000  00000+0  00000-0 0  9991
2 79018  90.0000  84.0000 0000000   0.0000 354.0000 14.06899812    19
CTC1_L_00155009-01
1 79019U 22324DZ  26070.40833333  .00000000  00000+0  00000-0 0  9990
2 79019  90.0000  96.0000 0000000   0.0000  96.0000 14.06899812    16
CTC1_L_00155009-02
1 79020U 25343TQ  26070.40833333  .00000000  00000+0  00000-0 0  9996
2 79020  90.0000  96.0000 0000000   0.0000 186.0000 14.06899812    18
CTC1_L_00155009-03
1 79021U 25327NW  26070.40833333  .00000000  00000+0  00000-0 0  9999
2 79021  90.0000  96.0000 0000000   0.0000 276.0000 14.06899812    19
CTC1_L_00155009-04
1 79022U 23456AR  26070.40833333  .00000000  00000+0  00000-0 0  9991
2 79022  90.0000  96.0000 0000000   0.0000   6.0000 14.06899812    11
CTC1_L_00155010-01
1 79023U 23617DT  26070.40833333  .00000000  00000+0  00000-0 0  9991
2 79023  90.0000 108.0000 0000000   0.0000 108.0000 14.06899812    19
CTC1_L_00155010-02
1 79024U 25951JP  26070.40833333  .00000000  00000+0  00000-0 0  9995
2 79024  90.0000 108.0000 0000000   0.0000 198.0000 14.06899812    19
CTC1_L_00155010-03
1 79025U 23147CA  26070.40833333  .00000000  00000+0  00000-0 0  9991
2 79025  90.0000 108.0000 0000000   0.0000 288.0000 14.06899812    10
CTC1_L_00155010-04
1 79026U 26216HU  26070.40833333  .00000000  00000+0  00000-0 0  9992
2 79026  90.0000 108.0000 0000000   0.0000  18.0000 14.06899812    12
CTC1_L_00155011-01
1 79027U 26244CZ  26070.40833333  .00000000  00000+0  00000-0 0  9994
2 79027  90.0000 120.0000 0000000   0.0000 120.0000 14.06899812    11
CTC1_L_00155011-02
1 79028U 25973O   26070.40833333  .00000000  00000+0  00000-0 0  9993
2 79028  90.0000 120.0000 0000000   0.0000 210.0000 14.06899812    12
CTC1_L_00155011-03
1 79029U 23073OF  26070.40833333  .00000000  00000+0  00000-0 0  9993
2 79029  90.0000 120.0000 0000000   0.0000 300.0000 14.06899812    13
CTC1_L_00155011-04
1 79030U 26715PW  26070.40833333  .00000000  00000+0  00000-0 0  9991
2 79030  90.0000 120.0000 0000000   0.0000  30.0000 14.06899812    15
CTC1_L_00155012-01
1 79031U 23190BM  26070.40833333  .00000000  00000+0  00000-0 0  9996
2 79031  90.0000 132.0000 0000000   0.0000 132.0000 14.06899812    12
CTC1_L_00155012-02
1 79032U 22864XW  26070.40833333  .00000000  00000+0  00000-0 0  9994
2 79032  90.0000 132.0000 0000000   0.0000 222.0000 14.06899812    13
CTC1_L_00155012-03
1 79033U 24655RE  26070.40833333  .00000000  00000+0  00000-0 0  9995
2 79033  90.0000 132.0000 0000000   0.0000 312.0000 14.06899812    14
CTC1_L_00155012-04
1 79034U 23093PB  26070.40833333  .00000000  00000+0  00000-0 0  9991
2 79034  90.0000 132.0000 0000000   0.0000  42.0000 14.06899812    15
CTC1_L_00155013-01
1 79035U 26129QI  26070.40833333  .00000000  00000+0  00000-0 0  9995
2 79035  90.0000 144.0000 0000000   0.0000 144.0000 14.06899812    12
CTC1_L_00155013-02
1 79036U 22477XM  26070.40833333  .00000000  00000+0  00000-0 0  9998
2 79036  90.0000 144.0000 0000000   0.0000 234.0000 14.06899812    13
CTC1_L_00155013-03
1 79037U 26729GB  26070.40833333  .00000000  00000+0  00000-0 0  9993
2 79037  90.0000 144.0000 0000000   0.0000 324.0000 14.06899812    14
CTC1_L_00155013-04
1 79038U 24330SE  26070.40833333  .00000000  00000+0  00000-0 0  9990
2 79038  90.0000 144.0000 0000000   0.0000  54.0000 14.06899812    15
CTC1_L_00155014-01
1 79039U 25582IS  26070.40833333  .00000000  00000+0  00000-0 0  9991
2 79039  90.0000 156.0000 0000000   0.0000 156.0000 14.06899812    12
CTC1_L_00155014-02
1 79040U 24442ZI  26070.40833333  .00000000  00000+0  00000-0 0  9997
2 79040  90.0000 156.0000 0000000   0.0000 246.0000 14.06899812    14
CTC1_L_00155014-03
1 79041U 22460BF  26070.40833333  .00000000  00000+0  00000-0 0  9996
2 79041  90.0000 156.0000 0000000   0.0000 336.0000 14.06899812    15
CTC1_L_00155014-04
1 79042U 25261FQ  26070.40833333  .00000000  00000+0  00000-0 0  9999
2 79042  90.0000 156.0000 0000000   0.0000  66.0000 14.06899812    16
CTC1_L_00155015-01
1 79043U 25543CZ  26070.40833333  .00000000  00000+0  00000-0 0  9993
2 79043  90.0000 168.0000 0000000   0.0000 168.0000 14.06899812    13
CTC1_L_00155015-02
1 79044U 22702EI  26070.40833333  .00000000  00000+0  00000-0 0  9998
2 79044  90.0000 168.0000 0000000   0.0000 258.0000 14.06899812    14
CTC1_L_00155015-03
1 79045U 22992WV  26070.40833333  .00000000  00000+0  00000-0 0  9990
2 79045  90.0000 168.0000 0000000   0.0000 348.0000 14.06899812    15
CTC1_L_00155015-04
1 79046U 26018GK  26070.40833333  .00000000  00000+0  00000-0 0  9994
2 79046  90.0000 168.0000 0000000   0.0000  78.0000 14.06899812    16
CTC1_L_00155016-01
1 79047U 25926YH  26070.40833333  .00000000  00000+0  00000-0 0  9992
2 79047  90.0000 180.0000 0000000   0.0000 180.0000 14.06899812    15
CTC1_L_00155016-02
1 79048U 23031SE  26070.40833333  .00000000  00000+0  00000-0 0  9998
2 79048  90.0000 180.0000 0000000   0.0000 270.0000 14.06899812    16
